CCSDS_OMM_VERS = 2.0
CREATION_DATE  = 
ORIGINATOR     = 

OBJECT_NAME    = 1998-067XU
OBJECT_ID      = 1998-067XU
CENTER_NAME    = EARTH
REF_FRAME      = TEME
TIME_SYSTEM    = UTC
MEAN_ELEMENT_THEORY = SGP/SGP4

EPOCH          = 2026-01-23T10:46:08.898240
MEAN_MOTION    = 15.57991789
ECCENTRICITY   = .00032581
INCLINATION    = 51.6283
RA_OF_ASC_NODE = 294.3096
ARG_OF_PERICENTER = 105.8280
MEAN_ANOMALY   = 254.3072

EPHEMERIS_TYPE = 0
CLASSIFICATION_TYPE = U
NORAD_CAT_ID   = 66908
ELEMENT_SET_NO = 999
REV_AT_EPOCH   = 810
BSTAR          = .15486789E-2
MEAN_MOTION_DOT = .119587E-2
MEAN_MOTION_DDOT = 0

CCSDS_OMM_VERS = 2.0
CREATION_DATE  = 
ORIGINATOR     = 

OBJECT_NAME    = SILVERSAT
OBJECT_ID      = 1998-067XV
CENTER_NAME    = EARTH
REF_FRAME      = TEME
TIME_SYSTEM    = UTC
MEAN_ELEMENT_THEORY = SGP/SGP4

EPOCH          = 2026-01-23T04:17:56.348160
MEAN_MOTION    = 15.58894116
ECCENTRICITY   = .00036168
INCLINATION    = 51.6290
RA_OF_ASC_NODE = 295.5096
ARG_OF_PERICENTER = 118.3306
MEAN_ANOMALY   = 241.8052

EPHEMERIS_TYPE = 0
CLASSIFICATION_TYPE = U
NORAD_CAT_ID   = 66909
ELEMENT_SET_NO = 999
REV_AT_EPOCH   = 806
BSTAR          = .16151878E-2
MEAN_MOTION_DOT = .129236E-2
MEAN_MOTION_DDOT = 0

CCSDS_OMM_VERS = 2.0
CREATION_DATE  = 
ORIGINATOR     = 

OBJECT_NAME    = 1998-067XW
OBJECT_ID      = 1998-067XW
CENTER_NAME    = EARTH
REF_FRAME      = TEME
TIME_SYSTEM    = UTC
MEAN_ELEMENT_THEORY = SGP/SGP4

EPOCH          = 2026-01-23T02:51:42.802560
MEAN_MOTION    = 15.58195991
ECCENTRICITY   = .00020426
INCLINATION    = 51.6284
RA_OF_ASC_NODE = 295.8565
ARG_OF_PERICENTER = 96.0258
MEAN_ANOMALY   = 264.0967

EPHEMERIS_TYPE = 0
CLASSIFICATION_TYPE = U
NORAD_CAT_ID   = 66910
ELEMENT_SET_NO = 999
REV_AT_EPOCH   = 805
BSTAR          = .13691754E-2
MEAN_MOTION_DOT = .106297E-2
MEAN_MOTION_DDOT = 0

CCSDS_OMM_VERS = 2.0
CREATION_DATE  = 
ORIGINATOR     = 

OBJECT_NAME    = 1998-067XX
OBJECT_ID      = 1998-067XX
CENTER_NAME    = EARTH
REF_FRAME      = TEME
TIME_SYSTEM    = UTC
MEAN_ELEMENT_THEORY = SGP/SGP4

EPOCH          = 2026-01-23T00:46:57.577440
MEAN_MOTION    = 15.59842284
ECCENTRICITY   = .00023616
INCLINATION    = 51.6277
RA_OF_ASC_NODE = 296.0283
ARG_OF_PERICENTER = 124.8637
MEAN_ANOMALY   = 235.2578

EPHEMERIS_TYPE = 0
CLASSIFICATION_TYPE = U
NORAD_CAT_ID   = 66911
ELEMENT_SET_NO = 999
REV_AT_EPOCH   = 803
BSTAR          = .13788168E-2
MEAN_MOTION_DOT = .114075E-2
MEAN_MOTION_DDOT = 0

CCSDS_OMM_VERS = 2.0
CREATION_DATE  = 
ORIGINATOR     = 

OBJECT_NAME    = 1998-067XY
OBJECT_ID      = 1998-067XY
CENTER_NAME    = EARTH
REF_FRAME      = TEME
TIME_SYSTEM    = UTC
MEAN_ELEMENT_THEORY = SGP/SGP4

EPOCH          = 2026-01-23T00:39:29.176992
MEAN_MOTION    = 15.56115873
ECCENTRICITY   = .0002983
INCLINATION    = 51.6302
RA_OF_ASC_NODE = 296.7470
ARG_OF_PERICENTER = 85.1246
MEAN_ANOMALY   = 275.0086

EPHEMERIS_TYPE = 0
CLASSIFICATION_TYPE = U
NORAD_CAT_ID   = 66912
ELEMENT_SET_NO = 999
REV_AT_EPOCH   = 802
BSTAR          = .98263603E-3
MEAN_MOTION_DOT = .70113E-3
MEAN_MOTION_DDOT = 0

